C/2021 R7 (PANSTARRS),e,158.8474,170.1429,140.2583,1039,0.0000294,0.99456350,0.0000,04/16.6384/2021,2000,g 10.5,4.0
# From MPEC 2021-Y10
P/2021 R8 (Sheppard),e,2.2034,167.0280,190.7775,3.017039,0.1880757,0.29361049,58.4064,08/14.0/2022,2000,g 18.5,4.0
# From MPEC 2022-OB6
P/2021 R9 (Sheppard-Tholen),e,7.4328,302.6948,97.5653,5.645606,0.0734748,0.18047322,359.6818,08/14.0/2022,2000,g 12.0,4.0
# From MPEC 2022-L66
C/2021 S1 (ATLAS),h,02/28.8726/2022,52.0837,299.8765,148.1792,1.001347,6.119202,2000,7.0,4.0
# From MPEC 2022-PB4
C/2021 S3 (PANSTARRS),e,58.5359,215.6292,6.8932,10232,0.0000010,0.99987106,0.0000,02/14.7657/2024,2000,g  5.5,4.0
# From MPEC 2022-ED3
C/2021 S4 (Tsuchinshan),e,17.4776,5.4944,72.7501,164.1533,0.0004686,0.95923416,359.7634,08/14.0/2022,2000,g  6.5,4.0
# From MPEC 2022-OB6
C/2021 T1 (Lemmon),e,140.3513,56.8350,51.5187,1271,0.0000217,0.99759475,0.0000,10/14.0516/2021,2000,g 12.5,4.0
# From MPEC 2022-ED3
C/2021 T2 (Fuls),h,06/07.8927/2022,117.5302,223.2322,263.5932,1.000212,1.247708,2000,12.0,4.0
# From MPEC 2022-PB4
C/2021 T4 (Lemmon),h,07/31.5049/2023,160.7577,257.8008,329.7793,1.000006,1.481956,2000,7.5,4.0
# From MPEC 2022-ED3
P/2021 U1 (Wierzchos),e,30.5578,246.7863,145.0677,8.515695,0.0396619,0.71284826,12.5715,08/14.0/2022,2000,g 14.5,4.0
# From MPEC 2022-L66
P/2021 U3 (Attard-Maury),e,69.9592,75.1088,335.2192,4.192040,0.1148328,0.54988108,33.6609,08/14.0/2022,2000,g 15.5,4.0
# From MPEC 2021-W31
C/2021 U4 (Leonard),e,152.8772,241.8130,237.2788,44.66886,0.0033014,0.95998518,0.7761,08/14.0/2022,2000,g 17.0,4.0
# From MPEC 2022-P82
C/2021 U5 (Catalina),e,39.0506,182.7550,321.4623,217.2333,0.0003078,0.98912163,0.0000,01/26.5929/2022,2000,g 13.0,4.0
# From MPEC 2022-CN4
C/2021 V1 (Rankin),e,71.4536,207.6535,195.1149,628.8015,0.0000625,0.99520761,0.0000,04/30.3992/2022,2000,g 13.0,4.0
# From MPEC 2022-HC2
P/2021 V2 (Fuls),e,12.6943,232.2881,259.8275,9.047919,0.0362144,0.61354421,354.1899,08/14.0/2022,2000,g 10.0,4.0
# From MPEC 2022-J42
C/2021 X1 (Maury-Attard),e,140.1213,10.5840,334.6170,36773,0.0000001,0.99991206,0.0000,05/27.4575/2023,2000,g  7.0,4.0
# From MPEC 2022-OB6
A/2021 X2,h,07/08.1646/2022,137.1467,228.7994,193.2870,1.001458,2.994542,2000,16.0,2.0
# From MPEC 2022-PB4
C/2021 Y1 (ATLAS),h,04/30.7095/2023,77.1859,244.7700,245.8077,1.000754,2.032665,2000,7.0,4.0
# From MPEC 2022-ED3
C/2022 A1 (Sarneczky),e,116.5207,285.5247,201.1982,806.1850,0.0000431,0.99844587,0.0000,01/31.1499/2022,2000,g 18.0,4.0
# From MPEC 2022-PB4
C/2022 A2 (PANSTARRS),h,02/18.2537/2023,108.1484,171.5801,88.3609,1.000513,1.735351,2000,9.5,4.0
# From MPEC 2022-M88
C/2022 A3 (Lemmon-ATLAS),e,88.3554,325.4836,234.8512,976.6009,0.0000323,0.99620809,0.0000,09/28.8280/2023,2000,g  8.0,4.0
# From MPEC 2022-K19
P/2022 B1 (Wierzchos),e,10.9907,148.8496,325.4778,5.465308,0.0771404,0.65296686,13.0880,08/14.0/2022,2000,g 16.5,4.0
# From MPEC 2022-K19
A/2022 B3,e,132.0548,286.1856,150.6939,907.5582,0.0000360,0.99592498,0.0000,01/17.6223/2022,2000,g 16.5,2.0
# From MPEC 2022-GA9
C/2022 B4 (Bok),e,20.0440,340.6606,152.9486,386.0653,0.0001299,0.99642668,0.0000,01/29.8902/2022,2000,g 21.0,4.0
# From MPEC 2022-H04
P/2022 C1 (PANSTARRS),e,4.7619,113.1446,9.3617,7.217669,0.0508287,0.44783160,14.3598,08/14.0/2022,2000,g 12.0,4.0
# From MPEC 2022-OB6
P/2022 C2 (PANSTARRS),e,9.9797,135.2718,89.3016,6.046708,0.0662866,0.44260294,0.4912,08/14.0/2022,2000,g 12.5,4.0
# From MPEC 2022-OB6
P/2022 C3 (PANSTARRS),e,12.8159,139.0583,93.9417,9.649509,0.0328811,0.54665963,1.4384,08/14.0/2022,2000,g 11.5,4.0
# From MPEC 2022-K19
P/2022 D1 (PANSTARRS),e,44.0679,47.9609,88.7030,7.401214,0.0489497,0.54706022,17.1797,08/14.0/2022,2000,g 12.5,4.0
# From MPEC 2022-K19
C/2022 D2 (Kowalski),e,22.6542,312.4678,177.7887,367.4824,0.0001399,0.99576822,0.0000,03/27.5720/2022,2000,g 17.0,4.0
# From MPEC 2022-L66
P/2022 E1 (Christensen),e,19.0039,113.3470,115.0923,3.781732,0.1340195,0.22116428,8.6312,08/14.0/2022,2000,g 13.5,4.0
# From MPEC 2022-O01
C/2022 E2 (ATLAS),h,09/13.7713/2024,137.1437,125.3545,41.6693,1.001482,3.666638,2000,5.0,4.0
# From MPEC 2022-PB4
C/2022 E3 (ZTF),h,01/12.7859/2023,109.1687,302.5540,145.8148,1.000281,1.112246,2000,7.5,4.0
# From MPEC 2022-PB4
C/2022 F1 (ATLAS),h,08/05.1328/2022,57.9715,350.6583,278.2648,1.000071,5.974440,2000,7.0,4.0
# From MPEC 2022-L66
C/2022 F2 (NEOWISE),e,97.2937,58.6956,200.6284,23.91385,0.0084281,0.93372016,1.2098,08/14.0/2022,2000,g 14.5,4.0
# From MPEC 2022-P82
C/2022 H1 (PANSTARRS),e,49.8712,6.3682,246.2671,1081,0.0000277,0.99288233,0.0000,01/18.8416/2024,2000,g  6.0,4.0
# From MPEC 2022-P82
C/2022 J1 (Maury-Attard),e,105.9300,280.7230,305.6602,47.62917,0.0029984,0.96631835,0.5276,08/14.0/2022,2000,g 14.9,4.0
# From MPEC 2022-N37
C/2022 J2 (Bok),e,149.0910,252.5491,133.0981,90.48192,0.0011451,0.97981180,0.0000,10/27.1123/2022,2000,g 15.5,4.0
# From MPEC 2022-PB4
C/2022 K1 (Leonard),h,12/17.3329/2021,41.9761,136.2940,142.6337,1.002910,3.986566,2000,11.0,4.0
# From MPEC 2022-PB4
C/2022 L1 (Catalina),e,123.4677,300.0244,59.8561,515.9606,0.0000841,0.99691551,0.0000,09/28.2539/2022,2000,g 15.8,4.0
# From MPEC 2022-PB4
C/2022 L2 (ATLAS),h,03/12.4743/2024,129.3120,39.2502,199.9988,1.000719,2.690553,2000,6.5,4.0
# From MPEC 2022-PB4
P/2022 L3 (ATLAS),e,21.5426,29.7985,10.3809,6.500086,0.0594738,0.62782676,355.4147,08/14.0/2022,2000,g 16.5,4.0
# From MPEC 2022-N37
C/2022 L4 (PANSTARRS),e,141.2287,66.0496,125.3176,270.1062,0.0002220,0.98883797,0.0000,12/08.7129/2021,2000,g 14.0,4.0
# From MPEC 2022-PB4
P/2022 M1 (PANSTARRS),e,7.0266,322.9212,4.4580,4.889429,0.0911626,0.57839775,1.0617,08/14.0/2022,2000,g 17.0,4.0
# From MPEC 2022-PB4
C/2022 N1 (Attard-Maury),e,164.7405,301.8579,41.0766,36.81908,0.0044116,0.95975539,359.8806,08/14.0/2022,2000,g 16.9,4.0
# From MPEC 2022-P82
C/2022 N2 (PANSTARRS),h,08/01.5301/2025,5.4966,319.7636,75.2742,1.002369,3.833973,2000,6.0,4.0
# From  98, 1083
1P/Halley,e,162.1960,59.2076,112.1297,17.87122,0.0130459,0.96649058,173.7931,08/14.0/2022,2000,g  4.0,6.0
# From MPEC 2022-PB4
2P/Encke,e,11.4453,334.2428,187.0865,2.219661,0.2980396,0.84804720,230.6693,08/14.0/2022,2000,g 11.5,6.0
# From MPEC 2022-PB4
4P/Faye,e,8.0088,192.9255,207.0264,3.825408,0.1317308,0.57676611,44.6719,08/14.0/2022,2000,g  8.0,6.0
# From MPEC 2022-L66
6P/d'Arrest,e,19.5120,138.9344,178.0858,3.496964,0.1507187,0.61262165,49.7773,08/14.0/2022,2000,g  7.5,16.0
# From MPEC 2021-Y10
7P/Pons-Winnecke,e,22.3668,93.3414,172.5646,3.411320,0.1564301,0.63848715,69.4462,08/14.0/2022,2000,g 10.0,6.0
# From MPEC 2022-HC2
8P/Tuttle,e,54.9178,270.1973,207.4803,5.704578,0.0723384,0.82017377,25.4106,08/14.0/2022,2000,g  8.0,8.0
# From MPEC 2022-PB4
9P/Tempel,e,10.4696,68.7096,179.3731,3.146757,0.1765669,0.50922443,28.6072,08/14.0/2022,2000,g  5.5,10.0
# From MPEC 2022-HC2
10P/Tempel,e,12.0381,117.8125,195.5135,3.061154,0.1840248,0.53833424,93.4475,08/14.0/2022,2000,g  5.0,10.0
# From MPEC 2022-K19
11P/Tempel-Swift-LINEAR,e,14.4250,238.8826,167.9755,3.283814,0.1656289,0.57734013,103.6143,08/14.0/2022,2000,g 17.0,4.0
# From MPEC 2022-PB4
12P/Pons-Brooks,e,74.1681,255.8164,198.9678,17.26094,0.0137438,0.95474783,351.5362,08/14.0/2022,2000,g  9.0,4.0
# From  27, 604
13P/Olbers,e,44.6167,85.9438,64.3870,16.78877,0.0143277,0.93000042,350.1565,08/14.0/2022,2000,g  5.0,6.0
# From MPEC 2021-F20
14P/Wolf,e,27.9249,202.0414,159.0785,4.258151,0.1121689,0.35719452,192.2514,08/14.0/2022,2000,g  5.5,12.0
# From MPEC 2022-ED3
15P/Finlay,e,6.7980,13.7088,347.8544,3.507373,0.1500483,0.71706340,59.4950,08/14.0/2022,2000,g 12.0,4.0
# From MPEC 2022-C56
16P/Brooks,e,3.0116,138.8696,245.2248,3.658044,0.1408740,0.48642880,67.9894,08/14.0/2022,2000,g  7.5,10.0
# From MPEC 2022-ED3
17P/Holmes,e,19.0309,326.6242,24.5315,3.637015,0.1420975,0.42759821,76.7412,08/14.0/2022,2000,g 10.0,6.0
# From MPEC 2022-P82
19P/Borrelly,e,29.3041,74.2429,351.9241,3.605845,0.1439440,0.63773012,27.8051,08/14.0/2022,2000,g  4.5,10.0
# From MPEC 2021-F20
21P/Giacobini-Zinner,e,32.0564,195.3449,172.8801,3.495169,0.1508349,0.71122476,216.0628,08/14.0/2022,2000,g 11.4,4.0
# From MPEC 2022-PB4
22P/Kopff,e,4.7418,120.8266,163.0342,3.442044,0.1543403,0.54899920,22.9735,08/14.0/2022,2000,g  3.0,10.4
# From MPC 14747
23P/Brorsen-Metcalf,e,19.1902,312.1983,129.0012,16.94506,0.0141299,0.97187003,0.0000,08/06.3049/1989,2000,g 10.0,6.0
# From MPC110085
24P/Schaumasse,e,11.5083,78.3865,58.4100,4.054680,0.1207172,0.70772966,209.8046,08/14.0/2022,2000,g  6.5,14.0
# From MPEC 2022-K19
26P/Grigg-Skjellerup,e,22.4320,211.5389,2.1544,3.014975,0.1882688,0.64035440,266.1557,08/14.0/2022,2000,g 12.0,16.0
# From MPC 78188
27P/Crommelin,e,29.3102,250.6472,195.8831,9.181902,0.0354246,0.91875351,143.0901,08/14.0/2022,2000,g 12.0,8.0
# From MPEC 2022-F14
28P/Neujmin,e,14.3119,346.3332,347.4446,6.979162,0.0534563,0.77370290,27.8045,08/14.0/2022,2000,g  8.5,6.0
# From MPEC 2022-PB4
29P/Schwassmann-Wachmann,e,9.3652,312.3893,50.4639,6.045058,0.0663137,0.04482484,80.7864,08/14.0/2022,2000,g  4.0,4.0
# From MPEC 2022-K19
30P/Reinmuth,e,8.0887,117.7424,9.5083,3.722926,0.1372074,0.51766546,259.3581,08/14.0/2022,2000,g  9.5,6.0
# From MPEC 2021-F20
31P/Schwassmann-Wachmann,e,4.5479,114.1061,17.9637,4.236369,0.1130351,0.19219522,128.5566,08/14.0/2022,2000,g 13.1,4.0
# From MPEC 2022-K19
32P/ComasSola,e,9.8881,54.8465,54.8915,4.541187,0.1018474,0.55769960,297.3221,08/14.0/2022,2000,g  6.5,8.0
# From MPEC 2013-O31
33P/Daniel,e,22.2952,66.3053,20.4807,4.087313,0.1192744,0.45169320,262.0945,08/14.0/2022,2000,g 10.0,12.0
# From  15, 452
35P/Herschel-Rigollet,e,65.287,356.741,28.958,28.5508,0.006461,0.9742458,0.000,01/27.8988/2092,2000,g  9.0,4.0
# From MPEC 2022-ED3
36P/Whipple,e,9.9527,181.8412,200.9818,4.136085,0.1171709,0.26910656,94.1304,08/14.0/2022,2000,g  8.5,6.0
# From MPEC 2021-F20
37P/Forbes,e,8.9539,314.5665,330.1153,3.461266,0.1530564,0.53329686,239.2286,08/14.0/2022,2000,g 13.8,4.0
# From MPEC 2018-S50
